ONEWEB-0406             
1 50486U 21132T   26167.51638958  .00000055  00000+0  10763-3 0  9998
2 50486  87.9165 335.5896 0002342  86.1586 273.9814 13.18685313221531
ONEWEB-0407             
1 50487U 21132U   26167.50965860  .00000597  00000+0  14824-2 0  9995
2 50487  87.9167 335.5831 0001578  90.3593 269.7720 13.18683530221479
ONEWEB-0409             
1 50488U 21132V   26167.56683568  .00000225  00000+0  59864-3 0  9996
2 50488  87.8894  21.1788 0002117  85.9466 274.1903 13.11420329215502
ONEWEB-0412             
1 50489U 21132W   26167.49783860  .00000069  00000+0  14325-3 0  9994
2 50489  87.9167 335.5939 0001638  85.2633 274.8686 13.18685448221563
ONEWEB-0413             
1 50490U 21132X   26167.42703992  .00000063  00000+0  12636-3 0  9994
2 50490  87.9158 335.6067 0001537  90.1287 270.0022 13.18686137221496
ONEWEB-0414             
1 50491U 21132Y   26167.48772693  .00000134  00000+0  30606-3 0  9991
2 50491  87.9171 335.5760 0001825  87.1913 272.9428 13.18686115221535
ONEWEB-0417             
1 50492U 21132Z   26167.49615619  .00000075  00000+0  15841-3 0  9995
2 50492  87.9161 335.5944 0002085  90.8118 269.3253 13.18686122221518
ONEWEB-0418             
1 50493U 21132AA  26167.50612188  .00000072  00000+0  15042-3 0  9996
2 50493  87.9170 335.5921 0002148  91.4981 268.6397 13.18685243221579
ONEWEB-0419             
1 50494U 21132AB  26167.52472305  .00000006  00000+0 -16336-4 0  9990
2 50494  87.9171 335.5879 0002114  97.2278 262.9095 13.18665803221492
ONEWEB-0420             
1 50495U 21132AC  26167.48940850  .00000115  00000+0  25851-3 0  9992
2 50495  87.9160 335.5979 0001675  96.0183 264.1140 13.18686368221488
ONEWEB-0421             
1 50496U 21132AD  26167.48266531  .00000086  00000+0  18419-3 0  9999
2 50496  87.9167 335.5967 0001772  80.7087 279.4245 13.18684845221522
ONEWEB-0424             
1 50497U 21132AE  26167.51976292  .00000032  00000+0  47204-4 0  9992
2 50497  87.9170 335.5874 0002078 100.9415 259.1951 13.18685159221555
ONEWEB-0426             
1 50498U 21132AF  26167.47843820  .00000020  00000+0  17291-4 0  9998
2 50498  87.9169 335.5866 0002278  76.9357 283.2030 13.18689108221491
ONEWEB-0427             
1 50499U 21132AG  26167.44220059  .00000064  00000+0  12998-3 0  9995
2 50499  87.9172 335.5828 0002035  89.7301 270.4064 13.18685164221512
ONEWEB-0429             
1 50500U 21132AH  26167.50458736  .00000004  00000+0 -23234-4 0  9991
2 50500  87.9162 335.5946 0001725  92.9546 267.1784 13.18685724221498
ONEWEB-0430             
1 50501U 21132AJ  26167.49278012  .00000105  00000+0  23387-3 0  9996
2 50501  87.9162 335.5955 0001817 101.1255 259.0082 13.18686673221531
ONEWEB-0432             
1 50502U 21132AK  26167.45935589  .00000109  00000+0  24964-3 0  9998
2 50502  87.9169 335.5796 0002162 108.6867 251.4499 13.17155171221482
ONEWEB-0440             
1 50503U 21132AL  26167.51301537 -.00000003  00000+0 -39516-4 0  9991
2 50503  87.9171 335.5875 0001566  86.3208 273.8103 13.18685357221487
ONEWEB-0450             
1 50504U 21132AM  26167.50641452  .00000059  00000+0  11698-3 0  9993
2 50504  87.9160 335.5941 0001688  96.9355 263.1970 13.18686292221512
TIANHUI 4A              
1 50572U 21134A   26167.64440421  .00004558  00000+0  91058-4 0  9995
2 50572  88.9707 322.7998 0010985  74.8877 285.3598 15.46489973249780
TIANHUI 4B              
1 50573U 21134B   26167.64476149  .00004550  00000+0  90913-4 0  9993
2 50573  88.9704 322.7808 0010639  78.9374 281.3082 15.46487911249752
TJS-9                   
1 50574U 21135A   26167.28425561 -.00000300  00000+0  00000+0 0  9990
2 50574   0.0414 251.8317 0004190 157.2693  94.9452  1.00267698 16421
STARLINK-3323           
1 50804U 22001B   26167.45288914  .00001320  00000+0  10103-3 0  9998
2 50804  53.1609  75.6676 0001218 107.1643 252.9482 15.08829758245459
STARLINK-3333           
1 50805U 22001C   26167.44919285  .00000912  00000+0  75396-4 0  9992
2 50805  53.1610  75.6820 0001237  90.4130 269.7003 15.08834902245451
STARLINK-3335           
1 50806U 22001D   26167.44551271  .00000242  00000+0  33321-4 0  9998
2 50806  53.1608  75.6987 0001345  88.8898 271.2248 15.08835769245456
STARLINK-3355           
1 50808U 22001F   26167.43815883 -.00001634  00000+0 -84608-4 0  9993
2 50808  53.1624  75.7350 0001656  90.8959 269.2222 15.08821815245453
STARLINK-3232           
1 50809U 22001G   26167.44183324 -.00000193  00000+0  59895-5 0  9992
2 50809  53.1614  75.7142 0001320  92.9578 267.1565 15.08834624245459
STARLINK-3338           
1 50812U 22001K   26167.07016514  .00000369  00000+0  41316-4 0  9993
2 50812  53.1600  77.4913 0001686  87.6912 272.4273 15.08839906245397
STARLINK-3349           
1 50813U 22001L   26166.86586724  .00066127  00000+0  13418-2 0  9999
2 50813  53.2048  20.4581 0001557 161.5747 198.5318 15.45772273246190
STARLINK-3324           
1 50814U 22001M   26167.07292510  .00000117  00000+0  25458-4 0  9997
2 50814  53.1610  87.3666 0001277  93.9287 266.1851 15.08834603245263
