OBJECT_NAME,OBJECT_ID,EPOCH,MEAN_MOTION,ECCENTRICITY,INCLINATION,RA_OF_ASC_NODE,ARG_OF_PERICENTER,MEAN_ANOMALY,EPHEMERIS_TYPE,CLASSIFICATION_TYPE,NORAD_CAT_ID,ELEMENT_SET_NO,REV_AT_EPOCH,BSTAR,MEAN_MOTION_DOT,MEAN_MOTION_DDOT
ONEWEB-0406,2021-132T,2026-06-16T12:23:36.059712,13.18685313,.00023425,87.9165,335.5896,86.1586,273.9814,0,U,50486,999,22153,.10762748E-3,.55E-6,0
ONEWEB-0407,2021-132U,2026-06-16T12:13:54.503040,13.18683530,.0001578,87.9167,335.5831,90.3593,269.7720,0,U,50487,999,22147,.14824408E-2,.597E-5,0
ONEWEB-0409,2021-132V,2026-06-16T13:36:14.602752,13.11420329,.00021174,87.8894,21.1788,85.9466,274.1903,0,U,50488,999,21550,.59863589E-3,.225E-5,0
ONEWEB-0412,2021-132W,2026-06-16T11:56:53.255040,13.18685448,.00016383,87.9167,335.5939,85.2633,274.8686,0,U,50489,999,22156,.14324821E-3,.69E-6,0
ONEWEB-0413,2021-132X,2026-06-16T10:14:56.249088,13.18686137,.00015372,87.9158,335.6067,90.1287,270.0022,0,U,50490,999,22149,.1263642E-3,.63E-6,0
ONEWEB-0414,2021-132Y,2026-06-16T11:42:19.606752,13.18686115,.00018254,87.9171,335.5760,87.1913,272.9428,0,U,50491,999,22153,.30605682E-3,.134E-5,0
ONEWEB-0417,2021-132Z,2026-06-16T11:54:27.894816,13.18686122,.00020854,87.9161,335.5944,90.8118,269.3253,0,U,50492,999,22151,.15840606E-3,.75E-6,0
ONEWEB-0418,2021-132AA,2026-06-16T12:08:48.930432,13.18685243,.0002148,87.9170,335.5921,91.4981,268.6397,0,U,50493,999,22157,.15042379E-3,.72E-6,0
ONEWEB-0419,2021-132AB,2026-06-16T12:35:36.071520,13.18665803,.00021147,87.9171,335.5879,97.2278,262.9095,0,U,50494,999,22149,-.16335786E-4,.6E-7,0
ONEWEB-0420,2021-132AC,2026-06-16T11:44:44.894400,13.18686368,.0001675,87.9160,335.5979,96.0183,264.1140,0,U,50495,999,22148,.25850696E-3,.115E-5,0
ONEWEB-0421,2021-132AD,2026-06-16T11:35:02.282784,13.18684845,.00017729,87.9167,335.5967,80.7087,279.4245,0,U,50496,999,22152,.18418809E-3,.86E-6,0
ONEWEB-0424,2021-132AE,2026-06-16T12:28:27.516288,13.18685159,.00020787,87.9170,335.5874,100.9415,259.1951,0,U,50497,999,22155,.47203799E-4,.32E-6,0
ONEWEB-0426,2021-132AF,2026-06-16T11:28:57.060480,13.18689108,.00022787,87.9169,335.5866,76.9357,283.2030,0,U,50498,999,22149,.1729061E-4,.2E-6,0
ONEWEB-0427,2021-132AG,2026-06-16T10:36:46.130976,13.18685164,.00020358,87.9172,335.5828,89.7301,270.4064,0,U,50499,999,22151,.12997956E-3,.64E-6,0
ONEWEB-0429,2021-132AH,2026-06-16T12:06:36.347904,13.18685724,.00017258,87.9162,335.5946,92.9546,267.1784,0,U,50500,999,22149,-.23234348E-4,.4E-7,0
ONEWEB-0430,2021-132AJ,2026-06-16T11:49:36.202368,13.18686673,.00018174,87.9162,335.5955,101.1255,259.0082,0,U,50501,999,22153,.23387083E-3,.105E-5,0
ONEWEB-0432,2021-132AK,2026-06-16T11:01:28.348896,13.17155171,.00021628,87.9169,335.5796,108.6867,251.4499,0,U,50502,999,22148,.24964442E-3,.109E-5,0
ONEWEB-0440,2021-132AL,2026-06-16T12:18:44.527968,13.18685357,.00015667,87.9171,335.5875,86.3208,273.8103,0,U,50503,999,22148,-.39516137E-4,-.3E-7,0
ONEWEB-0450,2021-132AM,2026-06-16T12:09:14.214528,13.18686292,.00016888,87.9160,335.5941,96.9355,263.1970,0,U,50504,999,22151,.11697509E-3,.59E-6,0
TIANHUI 4A,2021-134A,2026-06-16T15:27:56.523744,15.46489973,.00109853,88.9707,322.7998,74.8877,285.3598,0,U,50572,999,24978,.91058187E-4,.4558E-4,0
TIANHUI 4B,2021-134B,2026-06-16T15:28:27.392736,15.46487911,.00106392,88.9704,322.7808,78.9374,281.3082,0,U,50573,999,24975,.90912942E-4,.455E-4,0
TJS-9,2021-135A,2026-06-16T06:49:19.684704,1.00267698,.00041907,0.0414,251.8317,157.2693,94.9452,0,U,50574,999,1642,0,-.3E-5,0
STARLINK-3323,2022-001B,2026-06-16T10:52:09.621696,15.08829758,.00012186,53.1609,75.6676,107.1643,252.9482,0,U,50804,999,24545,.10102655E-3,.132E-4,0
STARLINK-3333,2022-001C,2026-06-16T10:46:50.262240,15.08834902,.00012373,53.1610,75.6820,90.4130,269.7003,0,U,50805,999,24545,.75395907E-4,.912E-5,0
STARLINK-3335,2022-001D,2026-06-16T10:41:32.298144,15.08835769,.00013454,53.1608,75.6987,88.8898,271.2248,0,U,50806,999,24545,.3332083E-4,.242E-5,0
STARLINK-3355,2022-001F,2026-06-16T10:30:56.922912,15.08821815,.00016561,53.1624,75.7350,90.8959,269.2222,0,U,50808,999,24545,-.84608304E-4,-.1634E-4,0
STARLINK-3232,2022-001G,2026-06-16T10:36:14.391936,15.08834624,.00013209,53.1614,75.7142,92.9578,267.1565,0,U,50809,999,24545,.5989465E-5,-.193E-5,0
STARLINK-3338,2022-001K,2026-06-16T01:41:02.268096,15.08839906,.00016869,53.1600,77.4913,87.6912,272.4273,0,U,50812,999,24539,.41316068E-4,.369E-5,0
STARLINK-3349,2022-001L,2026-06-15T20:46:50.929536,15.45772273,.00015578,53.2048,20.4581,161.5747,198.5318,0,U,50813,999,24619,.13417946E-2,.66127E-3,0
STARLINK-3324,2022-001M,2026-06-16T01:45:00.728640,15.08834603,.00012779,53.1610,87.3666,93.9287,266.1851,0,U,50814,999,24526,.25457749E-4,.117E-5,0
